NORAD_CAT_ID,OBJECT_NAME,OBJECT_TYPE,EPOCH,MEAN_MOTION,ECCENTRICITY,INCLINATION,RA_OF_ASC_NODE,ARG_OF_PERICENTER,MEAN_ANOMALY,BSTAR,MEAN_MOTION_DOT,MEAN_MOTION_DDOT,TLE_LINE0,TLE_LINE1,TLE_LINE2,SEMIMAJOR_AXIS,PERIOD,APOGEE,PERIGEE,DECAYED
53561.0,STARLINK-4563,PAYLOAD,2023-12-05 21:25:43,15.08836071,0.0001253,53.2158,166.7791,101.5934,258.5199,0.00015744,2.218e-05,0.0,0 STARLINK-4563,1 53561U 22101AL  23339.89286538  .00002218  00000-0  15744-3 0  9992,2 53561  53.2158 166.7791 0001253 101.5934 258.5199 15.08836071 71799,6917.892,95.438,540.624,538.891,0.0
53561.0,STARLINK-4563,PAYLOAD,2023-12-06 00:36:29,15.08836993,0.0001161,53.2155,166.1837,102.9667,257.1454,0.00020573,2.988e-05,0.0,0 STARLINK-4563,1 53561U 22101AL  23340.02534469  .00002988  00000-0  20573-3 0  9998,2 53561  53.2155 166.1837 0001161 102.9667 257.1454 15.08836993 71812,6917.89,95.438,540.558,538.951,0.0
53561.0,STARLINK-4563,PAYLOAD,2023-12-06 13:19:34,15.08848288,0.0001237,53.2145,163.805,94.482,265.6313,0.00012228,1.659e-05,0.0,0 STARLINK-4563,1 53561U 22101AL  23340.55526083  .00001659  00000-0  12228-3 0  9991,2 53561  53.2145 163.8050 0001237  94.4820 265.6313 15.08848288 71898,6917.855,95.437,540.576,538.864,0.0
53561.0,STARLINK-4563,PAYLOAD,2023-12-06 19:41:06,15.0884977,0.0001243,53.2147,162.6154,96.2363,263.8771,0.00013577,1.874e-05,0.0,0 STARLINK-4563,1 53561U 22101AL  23340.82021853  .00001874  00000-0  13577-3 0  9993,2 53561  53.2147 162.6154 0001243  96.2363 263.8771 15.08849770 71931,6917.851,95.437,540.575,538.856,0.0
53561.0,STARLINK-4563,PAYLOAD,2023-12-06 21:16:29,15.08850658,0.0001245,53.2147,162.318,96.3734,263.74,0.00014836,2.075e-05,0.0,0 STARLINK-4563,1 53561U 22101AL  23340.88645784  .00002075  00000-0  14836-3 0  9997,2 53561  53.2147 162.3180 0001245  96.3734 263.7400 15.08850658 71948,6917.848,95.437,540.574,538.852,0.0
53561.0,STARLINK-4563,PAYLOAD,2023-12-07 11:34:58,15.08838843,0.0001208,53.2147,159.6417,92.4128,267.7002,-3.7244e-05,-8.81e-06,0.0,0 STARLINK-4563,1 53561U 22101AL  23341.48262198 -.00000881  00000-0 -37244-4 0  9992,2 53561  53.2147 159.6417 0001208  92.4128 267.7002 15.08838843 72038,6917.884,95.438,540.585,538.913,0.0
53561.0,STARLINK-4563,PAYLOAD,2023-12-07 13:10:21,15.08833253,0.0001169,53.2147,159.3443,100.1491,259.9633,8.9885e-05,1.143e-05,0.0,0 STARLINK-4563,1 53561U 22101AL  23341.54886309  .00001143  00000-0  89885-4 0  9993,2 53561  53.2147 159.3443 0001169 100.1491 259.9633 15.08833253 72044,6917.901,95.438,540.575,538.957,0.0
53561.0,STARLINK-4563,PAYLOAD,2023-12-08 13:01:08,15.08843549,0.0001222,53.2156,154.8835,92.4926,267.6206,1.0546e-05,-1.2e-06,0.0,0 STARLINK-4563,1 53561U 22101AL  23342.54246113 -.00000120  00000-0  10546-4 0  9990,2 53561  53.2156 154.8835 0001222  92.4926 267.6206 15.08843549 72192,6917.87,95.437,540.58,538.889,0.0
53561.0,STARLINK-4563,PAYLOAD,2023-12-08 19:22:41,15.08844064,0.000121,53.2157,153.6942,92.0688,268.0442,1.0894e-05,-1.14e-06,0.0,0 STARLINK-4563,1 53561U 22101AL  23342.80741988 -.00000114  00000-0  10894-4 0  9998,2 53561  53.2157 153.6942 0001210  92.0688 268.0442 15.08844064 72232,6917.868,95.437,540.57,538.896,0.0
53561.0,STARLINK-4563,PAYLOAD,2023-12-08 20:58:04,15.08844837,0.0001216,53.2156,153.3967,91.3095,268.8036,1.2121e-05,-9.5e-07,0.0,0 STARLINK-4563,1 53561U 22101AL  23342.87365910 -.00000095  00000-0  12121-4 0  9995,2 53561  53.2156 153.3967 0001216  91.3095 268.8036 15.08844837 72241,6917.866,95.437,540.572,538.889,0.0
53561.0,STARLINK-4563,PAYLOAD,2023-12-09 11:16:32,15.08842019,0.0001201,53.2158,150.7206,87.9502,272.1628,7.171e-05,8.54e-06,0.0,0 STARLINK-4563,1 53561U 22101AL  23343.46981756  .00000854  00000-0  71710-4 0  9994,2 53561  53.2158 150.7206 0001201  87.9502 272.1628 15.08842019 72333,6917.874,95.437,540.57,538.908,0.0
53561.0,STARLINK-4563,PAYLOAD,2023-12-09 14:27:18,15.08840678,0.0001202,53.2157,150.1258,88.3403,271.7727,0.0001005,1.312e-05,0.0,0 STARLINK-4563,1 53561U 22101AL  23343.60229747  .00001312  00000-0  10050-3 0  9994,2 53561  53.2157 150.1258 0001202  88.3403 271.7727 15.08840678 72355,6917.878,95.438,540.575,538.912,0.0
53561.0,STARLINK-4563,PAYLOAD,2023-12-10 11:07:19,15.08841404,0.00012,53.2157,146.2602,86.5849,273.5281,5.6491e-05,6.11e-06,0.0,0 STARLINK-4563,1 53561U 22101AL  23344.46341750  .00000611  00000-0  56491-4 0  9999,2 53561  53.2157 146.2602 0001200  86.5849 273.5281 15.08841404 72483,6917.876,95.437,540.571,538.911,0.0
53561.0,STARLINK-4563,PAYLOAD,2023-12-10 17:28:51,15.08840929,0.0001198,53.2158,145.0707,86.6417,273.4712,3.1441e-05,2.13e-06,0.0,0 STARLINK-4563,1 53561U 22101AL  23344.72837809  .00000213  00000-0  31441-4 0  9999,2 53561  53.2158 145.0707 0001198  86.6417 273.4712 15.08840929 72529,6917.878,95.437,540.571,538.914,0.0
53561.0,STARLINK-4563,PAYLOAD,2023-12-11 14:08:52,15.08838417,0.0001172,53.2158,141.2046,99.7315,260.3809,-4.6853e-06,-3.62e-06,0.0,0 STARLINK-4563,1 53561U 22101AL  23345.58949961 -.00000362  00000-0 -46853-5 0  9998,2 53561  53.2158 141.2046 0001172  99.7315 260.3809 15.08838417 72652,6917.885,95.438,540.561,538.939,0.0
53561.0,STARLINK-4563,PAYLOAD,2023-12-11 17:19:38,15.08839144,0.0001169,53.216,140.61,96.7164,263.3962,-6.5569e-07,-2.98e-06,0.0,0 STARLINK-4563,1 53561U 22101AL  23345.72197912 -.00000298  00000-0 -65569-6 0  9999,2 53561  53.2160 140.6100 0001169  96.7164 263.3962 15.08839144 72677,6917.883,95.438,540.557,538.939,0.0
53561.0,STARLINK-4563,PAYLOAD,2023-12-12 13:59:39,15.08835956,0.0001245,53.2166,136.7456,103.3074,256.8057,2.4155e-05,9.7e-07,0.0,0 STARLINK-4563,1 53561U 22101AL  23346.58310111  .00000097  00000-0  24155-4 0  9991,2 53561  53.2166 136.7456 0001245 103.3074 256.8057 15.08835956 72807,6917.893,95.438,540.619,538.896,0.0
53561.0,STARLINK-4563,PAYLOAD,2023-12-12 15:35:03,15.08836578,0.0001243,53.2166,136.4483,101.2961,258.8171,2.9063e-05,1.75e-06,0.0,0 STARLINK-4563,1 53561U 22101AL  23346.64934080  .00000175  00000-0  29063-4 0  9995,2 53561  53.2166 136.4483 0001243 101.2961 258.8171 15.08836578 72815,6917.891,95.438,540.616,538.896,0.0
53561.0,STARLINK-4563,PAYLOAD,2023-12-13 13:50:26,15.08839782,0.0001248,53.2169,132.2861,103.497,256.6162,6.8852e-05,8.08e-06,0.0,0 STARLINK-4563,1 53561U 22101AL  23347.57669825  .00000808  00000-0  68852-4 0  9992,2 53561  53.2169 132.2861 0001248 103.4970 256.6162 15.08839782 72952,6917.881,95.438,540.609,538.883,0.0
53561.0,STARLINK-4563,PAYLOAD,2023-12-13 17:01:12,15.0884178,0.0001234,53.217,131.6914,101.9099,258.2032,8.2292e-05,1.022e-05,0.0,0 STARLINK-4563,1 53561U 22101AL  23347.70917667  .00001022  00000-0  82292-4 0  9990,2 53561  53.2170 131.6914 0001234 101.9099 258.2032 15.08841780 72973,6917.875,95.437,540.594,538.886,0.0
53561.0,STARLINK-4563,PAYLOAD,2023-12-14 13:41:14,15.08839049,0.0001167,53.2165,127.8202,92.8424,267.2702,1.6779e-05,-2.1e-07,0.0,0 STARLINK-4563,1 53561U 22101AL  23348.57030132 -.00000021  00000-0  16779-4 0  9995,2 53561  53.2165 127.8202 0001167  92.8424 267.2702 15.08839049 73104,6917.883,95.438,540.556,538.941,0.0
53561.0,STARLINK-4563,PAYLOAD,2023-12-14 16:52:00,15.08841344,0.0001182,53.2167,127.2258,84.1599,275.9528,3.5084e-05,2.71e-06,0.0,0 STARLINK-4563,1 53561U 22101AL  23348.70277968  .00000271  00000-0  35084-4 0  9996,2 53561  53.2167 127.2258 0001182  84.1599 275.9528 15.08841344 73120,6917.876,95.437,540.559,538.924,0.0
53561.0,STARLINK-4563,PAYLOAD,2023-12-15 13:32:01,15.08836878,0.000119,53.2168,123.3611,73.1187,286.9936,-0.00012137,-2.219e-05,0.0,0 STARLINK-4563,1 53561U 22101AL  23349.56391124 -.00002219  00000-0 -12137-3 0  9991,2 53561  53.2168 123.3611 0001190  73.1187 286.9936 15.08836878 73256,6917.89,95.438,540.578,538.932,0.0
53561.0,STARLINK-4563,PAYLOAD,2023-12-15 16:42:48,15.08836248,0.0001359,53.2168,122.7674,64.2068,295.9064,-5.0073e-05,-1.085e-05,0.0,0 STARLINK-4563,1 53561U 22101AL  23349.69639015 -.00001085  00000-0 -50073-4 0  9991,2 53561  53.2168 122.7674 0001359  64.2068 295.9064 15.08836248 73279,6917.892,95.438,540.697,538.817,0.0
53561.0,STARLINK-4563,PAYLOAD,2023-12-16 13:22:48,15.08844241,0.0001471,53.2171,118.9014,61.7708,298.3433,9.5663e-05,1.235e-05,0.0,0 STARLINK-4563,1 53561U 22101AL  23350.55750129  .00001235  00000-0  95663-4 0  9997,2 53561  53.2171 118.9014 0001471  61.7708 298.3433 15.08844241 73400,6917.867,95.437,540.75,538.715,0.0
53561.0,STARLINK-4563,PAYLOAD,2023-12-16 14:58:11,15.0884617,0.0001547,53.2169,118.6046,59.8085,300.306,0.00011157,1.488e-05,0.0,0 STARLINK-4563,1 53561U 22101AL  23350.62373985  .00001488  00000-0  11157-3 0  9991,2 53561  53.2169 118.6046 0001547  59.8085 300.3060 15.08846170 73413,6917.862,95.437,540.797,538.656,0.0
53561.0,STARLINK-4563,PAYLOAD,2023-12-17 14:48:59,15.08822071,0.0001588,53.2165,114.1486,62.0082,298.1071,0.00026999,4.009e-05,0.0,0 STARLINK-4563,1 53561U 22101AL  23351.61734999  .00004009  00000-0  26999-3 0  9999,2 53561  53.2165 114.1486 0001588  62.0082 298.1071 15.08822071 73562,6917.935,95.439,540.899,538.702,0.0
53561.0,STARLINK-4563,PAYLOAD,2023-12-18 11:28:59,15.08843305,0.0001457,53.2169,110.2805,98.9144,261.2014,4.5227e-05,4.32e-06,0.0,0 STARLINK-4563,1 53561U 22101AL  23352.47846174  .00000432  00000-0  45227-4 0  9995,2 53561  53.2169 110.2805 0001457  98.9144 261.2014 15.08843305 73695,6917.87,95.437,540.743,538.727,0.0
53561.0,STARLINK-4563,PAYLOAD,2023-12-18 14:39:45,15.08845871,0.0001519,53.2175,109.6842,89.0572,271.0594,6.1958e-05,6.98e-06,0.0,0 STARLINK-4563,1 53561U 22101AL  23352.61093957  .00000698  00000-0  61958-4 0  9997,2 53561  53.2175 109.6842 0001519  89.0572 271.0594 15.08845871 73715,6917.862,95.437,540.778,538.677,0.0
53561.0,STARLINK-4563,PAYLOAD,2023-12-19 11:19:46,15.08838328,0.000146,53.2176,105.818,106.127,253.9883,1.6474e-05,-2.6e-07,0.0,0 STARLINK-4563,1 53561U 22101AL  23353.47206485 -.00000026  00000-0  16474-4 0  9993,2 53561  53.2176 105.8180 0001460 106.1270 253.9883 15.08838328 73843,6917.885,95.438,540.761,538.74,0.0
